SYRACUSE 3B             
1 29273U 06033B   26094.78791638 -.00000044  00000+0  00000+0 0  9992
2 29273   2.7149  81.0584 0004817 278.9152 324.9077  0.98627801 71931
KOREASAT 5 (MUGUNGWHA 5)
1 29349U 06034A   26094.91170392 -.00000356  00000+0  00000+0 0  9996
2 29349   1.5957  83.8787 0001777 321.9829 228.6355  1.00272249 40588
DIRECTV 9S              
1 29494U 06043A   26094.86926763 -.00000112  00000+0  00000+0 0  9992
2 29494   2.2317  81.7677 0003830 310.0552  13.0953  1.00272046 50649
OPTUS D1                
1 29495U 06043B   26094.84018037 -.00000182  00000+0  00000+0 0  9994
2 29495   2.8461  80.5396 0004054 299.4622 267.5940  1.00271480 71385
BADR-4                  
1 29526U 06051A   26094.87544939  .00000147  00000+0  00000+0 0  9996
2 29526   1.8159  81.8905 0006983 286.3616 166.3354  1.00274069 50539
WILDBLUE-1              
1 29643U 06054A   26094.65335159 -.00000048  00000+0  00000+0 0  9998
2 29643   2.6135  81.3921 0001711 294.3540 301.2316  1.00272190 53055
SKYNET 5A               
1 30794U 07007B   26094.91107047 -.00000269  00000+0  00000+0 0  9993
2 30794   5.1153  74.6140 0003981 310.9090 230.9033  1.00271173 69967
ANIK F3                 
1 31102U 07009A   26094.65187825  .00000000  00000+0  00000+0 0  9994
2 31102   1.0074  84.6925 0002857 286.7370 297.4994  1.00271535 45827
ASTRA 1L                
1 31306U 07016A   26094.88441324 -.00000183  00000+0  00000+0 0  9993
2 31306   1.1324  82.0861 0004403 311.3602  93.6126  1.00272703 44252
GALAXY 17 (G-17)        
1 31307U 07016B   26094.87247431 -.00000204  00000+0  00000+0 0  9990
2 31307   2.7868  80.8028 0004074 308.1180  33.3463  1.00271641 69064
INTELSAT 11 (IS-11)     
1 32253U 07044B   26094.90676390 -.00000001  00000+0  00000+0 0  9991
2 32253   3.3748  79.5423 0002762 222.1659 306.0090  0.99047773 67722
WGS F1 (USA 195)        
1 32258U 07046A   26094.80958314 -.00000267  00000+0  00000+0 0  9990
2 32258   0.0765  82.9810 0000451 304.8810  54.2062  1.00271142 51599
SKYNET 5B               
1 32294U 07056B   26094.76468327  .00000142  00000+0  00000+0 0  9997
2 32294   5.0662  74.3609 0003926 297.6930 121.3862  1.00272826 67460
ASTRA 4A                
1 32299U 07057A   26094.89021992  .00000033  00000+0  00000+0 0  9999
2 32299   0.0512  57.7868 0002671 326.7473 133.9469  1.00271005 50910
HORIZONS-2              
1 32388U 07063B   26094.87446765 -.00000252  00000+0  00000+0 0  9996
2 32388   2.4132  81.5162 0002856 306.0196  46.6490  1.00270692 67073
THURAYA-3               
1 32404U 08001A   26094.83748992 -.00000300  00000+0  00000+0 0  9995
2 32404   5.8671  35.6679 0002403 339.2697 218.2162  1.00273419 66759
THOR 5                  
1 32487U 08006A   26094.89905921 -.00000008  00000+0  00000+0 0  9999
2 32487   0.0180 233.5768 0002539 146.7366 135.8014  1.00271469 66588
