[{"OBJECT_NAME":"SYRACUSE 3B","OBJECT_ID":"2006-033B","EPOCH":"2026-04-04T18:54:35.975232","MEAN_MOTION":0.98627801,"ECCENTRICITY":0.00048173,"INCLINATION":2.7149,"RA_OF_ASC_NODE":81.0584,"ARG_OF_PERICENTER":278.9152,"MEAN_ANOMALY":324.9077,"EPHEMERIS_TYPE":0,"CLASSIFICATION_TYPE":"U","NORAD_CAT_ID":29273,"ELEMENT_SET_NO":999,"REV_AT_EPOCH":7193,"BSTAR":0,"MEAN_MOTION_DOT":-4.4e-7,"MEAN_MOTION_DDOT":0},{"OBJECT_NAME":"KOREASAT 5 (MUGUNGWHA 5)","OBJECT_ID":"2006-034A","EPOCH":"2026-04-04T21:52:51.218688","MEAN_MOTION":1.00272249,"ECCENTRICITY":0.0001777,"INCLINATION":1.5957,"RA_OF_ASC_NODE":83.8787,"ARG_OF_PERICENTER":321.9829,"MEAN_ANOMALY":228.6355,"EPHEMERIS_TYPE":0,"CLASSIFICATION_TYPE":"U","NORAD_CAT_ID":29349,"ELEMENT_SET_NO":999,"REV_AT_EPOCH":4058,"BSTAR":0,"MEAN_MOTION_DOT":-3.56e-6,"MEAN_MOTION_DDOT":0},{"OBJECT_NAME":"DIRECTV 9S","OBJECT_ID":"2006-043A","EPOCH":"2026-04-04T20:51:44.723232","MEAN_MOTION":1.00272046,"ECCENTRICITY":0.00038309,"INCLINATION":2.2317,"RA_OF_ASC_NODE":81.7677,"ARG_OF_PERICENTER":310.0552,"MEAN_ANOMALY":13.0953,"EPHEMERIS_TYPE":0,"CLASSIFICATION_TYPE":"U","NORAD_CAT_ID":29494,"ELEMENT_SET_NO":999,"REV_AT_EPOCH":5064,"BSTAR":0,"MEAN_MOTION_DOT":-1.12e-6,"MEAN_MOTION_DDOT":0},{"OBJECT_NAME":"OPTUS D1","OBJECT_ID":"2006-043B","EPOCH":"2026-04-04T20:09:51.583968","MEAN_MOTION":1.0027148,"ECCENTRICITY":0.00040541,"INCLINATION":2.8461,"RA_OF_ASC_NODE":80.5396,"ARG_OF_PERICENTER":299.4622,"MEAN_ANOMALY":267.594,"EPHEMERIS_TYPE":0,"CLASSIFICATION_TYPE":"U","NORAD_CAT_ID":29495,"ELEMENT_SET_NO":999,"REV_AT_EPOCH":7138,"BSTAR":0,"MEAN_MOTION_DOT":-1.82e-6,"MEAN_MOTION_DDOT":0},{"OBJECT_NAME":"BADR-4","OBJECT_ID":"2006-051A","EPOCH":"2026-04-04T21:00:38.827296","MEAN_MOTION":1.00274069,"ECCENTRICITY":0.00069839,"INCLINATION":1.8159,"RA_OF_ASC_NODE":81.8905,"ARG_OF_PERICENTER":286.3616,"MEAN_ANOMALY":166.3354,"EPHEMERIS_TYPE":0,"CLASSIFICATION_TYPE":"U","NORAD_CAT_ID":29526,"ELEMENT_SET_NO":999,"REV_AT_EPOCH":5053,"BSTAR":0,"MEAN_MOTION_DOT":1.47e-6,"MEAN_MOTION_DDOT":0},{"OBJECT_NAME":"WILDBLUE-1","OBJECT_ID":"2006-054A","EPOCH":"2026-04-04T15:40:49.577376","MEAN_MOTION":1.0027219,"ECCENTRICITY":0.00017112,"INCLINATION":2.6135,"RA_OF_ASC_NODE":81.3921,"ARG_OF_PERICENTER":294.354,"MEAN_ANOMALY":301.2316,"EPHEMERIS_TYPE":0,"CLASSIFICATION_TYPE":"U","NORAD_CAT_ID":29643,"ELEMENT_SET_NO":999,"REV_AT_EPOCH":5305,"BSTAR":0,"MEAN_MOTION_DOT":-4.8e-7,"MEAN_MOTION_DDOT":0},{"OBJECT_NAME":"SKYNET 5A","OBJECT_ID":"2007-007B","EPOCH":"2026-04-04T21:51:56.488608","MEAN_MOTION":1.00271173,"ECCENTRICITY":0.00039819,"INCLINATION":5.1153,"RA_OF_ASC_NODE":74.614,"ARG_OF_PERICENTER":310.909,"MEAN_ANOMALY":230.9033,"EPHEMERIS_TYPE":0,"CLASSIFICATION_TYPE":"U","NORAD_CAT_ID":30794,"ELEMENT_SET_NO":999,"REV_AT_EPOCH":6996,"BSTAR":0,"MEAN_MOTION_DOT":-2.69e-6,"MEAN_MOTION_DDOT":0},{"OBJECT_NAME":"ANIK F3","OBJECT_ID":"2007-009A","EPOCH":"2026-04-04T15:38:42.280800","MEAN_MOTION":1.00271535,"ECCENTRICITY":0.00028572,"INCLINATION":1.0074,"RA_OF_ASC_NODE":84.6925,"ARG_OF_PERICENTER":286.737,"MEAN_ANOMALY":297.4994,"EPHEMERIS_TYPE":0,"CLASSIFICATION_TYPE":"U","NORAD_CAT_ID":31102,"ELEMENT_SET_NO":999,"REV_AT_EPOCH":4582,"BSTAR":0,"MEAN_MOTION_DOT":0,"MEAN_MOTION_DDOT":0},{"OBJECT_NAME":"ASTRA 1L","OBJECT_ID":"2007-016A","EPOCH":"2026-04-04T21:13:33.303936","MEAN_MOTION":1.00272703,"ECCENTRICITY":0.00044039,"INCLINATION":1.1324,"RA_OF_ASC_NODE":82.0861,"ARG_OF_PERICENTER":311.3602,"MEAN_ANOMALY":93.6126,"EPHEMERIS_TYPE":0,"CLASSIFICATION_TYPE":"U","NORAD_CAT_ID":31306,"ELEMENT_SET_NO":999,"REV_AT_EPOCH":4425,"BSTAR":0,"MEAN_MOTION_DOT":-1.83e-6,"MEAN_MOTION_DDOT":0},{"OBJECT_NAME":"GALAXY 17 (G-17)","OBJECT_ID":"2007-016B","EPOCH":"2026-04-04T20:56:21.780384","MEAN_MOTION":1.00271641,"ECCENTRICITY":0.00040748,"INCLINATION":2.7868,"RA_OF_ASC_NODE":80.8028,"ARG_OF_PERICENTER":308.118,"MEAN_ANOMALY":33.3463,"EPHEMERIS_TYPE":0,"CLASSIFICATION_TYPE":"U","NORAD_CAT_ID":31307,"ELEMENT_SET_NO":999,"REV_AT_EPOCH":6906,"BSTAR":0,"MEAN_MOTION_DOT":-2.04e-6,"MEAN_MOTION_DDOT":0},{"OBJECT_NAME":"INTELSAT 11 (IS-11)","OBJECT_ID":"2007-044B","EPOCH":"2026-04-04T21:45:44.400960","MEAN_MOTION":0.99047773,"ECCENTRICITY":0.00027626,"INCLINATION":3.3748,"RA_OF_ASC_NODE":79.5423,"ARG_OF_PERICENTER":222.1659,"MEAN_ANOMALY":306.009,"EPHEMERIS_TYPE":0,"CLASSIFICATION_TYPE":"U","NORAD_CAT_ID":32253,"ELEMENT_SET_NO":999,"REV_AT_EPOCH":6772,"BSTAR":0,"MEAN_MOTION_DOT":-1.0e-8,"MEAN_MOTION_DDOT":0},{"OBJECT_NAME":"WGS F1 (USA 195)","OBJECT_ID":"2007-046A","EPOCH":"2026-04-04T19:25:47.983296","MEAN_MOTION":1.00271142,"ECCENTRICITY":4.513e-5,"INCLINATION":0.0765,"RA_OF_ASC_NODE":82.981,"ARG_OF_PERICENTER":304.881,"MEAN_ANOMALY":54.2062,"EPHEMERIS_TYPE":0,"CLASSIFICATION_TYPE":"U","NORAD_CAT_ID":32258,"ELEMENT_SET_NO":999,"REV_AT_EPOCH":5159,"BSTAR":0,"MEAN_MOTION_DOT":-2.67e-6,"MEAN_MOTION_DDOT":0},{"OBJECT_NAME":"SKYNET 5B","OBJECT_ID":"2007-056B","EPOCH":"2026-04-04T18:21:08.634528","MEAN_MOTION":1.00272826,"ECCENTRICITY":0.00039263,"INCLINATION":5.0662,"RA_OF_ASC_NODE":74.3609,"ARG_OF_PERICENTER":297.693,"MEAN_ANOMALY":121.3862,"EPHEMERIS_TYPE":0,"CLASSIFICATION_TYPE":"U","NORAD_CAT_ID":32294,"ELEMENT_SET_NO":999,"REV_AT_EPOCH":6746,"BSTAR":0,"MEAN_MOTION_DOT":1.42e-6,"MEAN_MOTION_DDOT":0},{"OBJECT_NAME":"ASTRA 4A","OBJECT_ID":"2007-057A","EPOCH":"2026-04-04T21:21:55.001088","MEAN_MOTION":1.00271005,"ECCENTRICITY":0.00026711,"INCLINATION":0.0512,"RA_OF_ASC_NODE":57.7868,"ARG_OF_PERICENTER":326.7473,"MEAN_ANOMALY":133.9469,"EPHEMERIS_TYPE":0,"CLASSIFICATION_TYPE":"U","NORAD_CAT_ID":32299,"ELEMENT_SET_NO":999,"REV_AT_EPOCH":5091,"BSTAR":0,"MEAN_MOTION_DOT":3.3e-7,"MEAN_MOTION_DDOT":0},{"OBJECT_NAME":"HORIZONS-2","OBJECT_ID":"2007-063B","EPOCH":"2026-04-04T20:59:14.004960","MEAN_MOTION":1.00270692,"ECCENTRICITY":0.00028561,"INCLINATION":2.4132,"RA_OF_ASC_NODE":81.5162,"ARG_OF_PERICENTER":306.0196,"MEAN_ANOMALY":46.649,"EPHEMERIS_TYPE":0,"CLASSIFICATION_TYPE":"U","NORAD_CAT_ID":32388,"ELEMENT_SET_NO":999,"REV_AT_EPOCH":6707,"BSTAR":0,"MEAN_MOTION_DOT":-2.52e-6,"MEAN_MOTION_DDOT":0},{"OBJECT_NAME":"THURAYA-3","OBJECT_ID":"2008-001A","EPOCH":"2026-04-04T20:05:59.129088","MEAN_MOTION":1.00273419,"ECCENTRICITY":0.00024039,"INCLINATION":5.8671,"RA_OF_ASC_NODE":35.6679,"ARG_OF_PERICENTER":339.2697,"MEAN_ANOMALY":218.2162,"EPHEMERIS_TYPE":0,"CLASSIFICATION_TYPE":"U","NORAD_CAT_ID":32404,"ELEMENT_SET_NO":999,"REV_AT_EPOCH":6675,"BSTAR":0,"MEAN_MOTION_DOT":-3.0e-6,"MEAN_MOTION_DDOT":0},{"OBJECT_NAME":"THOR 5","OBJECT_ID":"2008-006A","EPOCH":"2026-04-04T21:34:38.715744","MEAN_MOTION":1.00271469,"ECCENTRICITY":0.00025393,"INCLINATION":0.018,"RA_OF_ASC_NODE":233.5768,"ARG_OF_PERICENTER":146.7366,"MEAN_ANOMALY":135.8014,"EPHEMERIS_TYPE":0,"CLASSIFICATION_TYPE":"U","NORAD_CAT_ID":32487,"ELEMENT_SET_NO":999,"REV_AT_EPOCH":6658,"BSTAR":0,"MEAN_MOTION_DOT":-8.0e-8,"MEAN_MOTION_DDOT":0}]
